SKYSAT-C1               
1 41601U 16040C   26179.61415584  .00008233  00000+0  23332-3 0  9993
2 41601  96.9558 210.7152 0002291  34.8547 325.2848 15.36489099559622
LAPAN-A3                
1 41603U 16040E   26179.93939936  .00003143  00000+0  10029-3 0  9996
2 41603  97.1487 175.6992 0009417 344.1268  15.9678 15.33179151556615
GAOFEN-3                
1 41727U 16049A   26180.01699183 -.00000193  00000+0 -45301-4 0  9996
2 41727  98.4008 187.6242 0001614  97.6543 262.4830 14.42216335520359
SKYSAT-C4               
1 41771U 16058B   26179.96204948  .00015723  00000+0  29246-3 0  9990
2 41771  96.9170 201.2427 0002284 139.8061 220.3360 15.48951488547292
SKYSAT-C5               
1 41772U 16058C   26179.64583985  .00007110  00000+0  21411-3 0  9994
2 41772  97.0464 219.7751 0001435 208.0815 152.0351 15.34628337545500
SKYSAT-C2               
1 41773U 16058D   26179.61433185  .00011210  00000+0  26192-3 0  9995
2 41773  97.0161 201.2800 0003598  45.6227 314.5315 15.42324248546813
SKYSAT-C3               
1 41774U 16058E   26179.61442098  .00021246  00000+0  34152-3 0  9994
2 41774  96.9005 210.0237 0001291 126.3483 233.7891 15.53021167547885
ALSAT-1B                
1 41785U 16059C   26179.99781619  .00000568  00000+0  97359-4 0  9996
2 41785  97.7747 188.2516 0009024 179.0553 181.0674 14.72284016522319
PATHFINDER 1            
1 41787U 16059E   26179.93108808  .00000565  00000+0  10693-3 0  9997
2 41787  97.8167 178.6774 0028770 165.9424 194.2589 14.67675711521430
SCATSAT 1               
1 41790U 16059H   26179.91324474  .00001182  00000+0  16162-3 0  9991
2 41790  98.1188 243.8003 0053997 209.0025 150.8183 14.79550346103328
GOKTURK 1A              
1 41875U 16073A   26179.94279104  .00000416  00000+0  90662-4 0  9990
2 41875  98.1246  74.4333 0001431  79.2441 280.8922 14.62782730510543
RESOURCESAT-2A          
1 41877U 16074A   26179.96538671  .00000219  00000+0  11987-3 0  9995
2 41877  98.7532 253.3734 0003138  61.6381 298.5113 14.21604642495973
CARTOSAT-2D             
1 41948U 17008A   26179.94811196  .00003293  00000+0  15926-3 0  9998
2 41948  97.4111 239.0335 0004874 185.5600 174.5581 15.19292958519360
SENTINEL-2B             
1 42063U 17013A   26179.95573578  .00000025  00000+0  26217-4 0  9999
2 42063  98.5697 254.5641 0001227  91.4426 268.6897 14.30819856486320
CARTOSAT-2E             
1 42767U 17036C   26179.96584858  .00002988  00000+0  14498-3 0  9996
2 42767  97.4279 239.5736 0002314 260.2353  99.8621 15.19252784499935
FORMOSAT-5              
1 42920U 17049A   26179.91457515  .00000138  00000+0  46064-4 0  9995
2 42920  98.2253 254.9637 0012335  51.6753 308.5549 14.50902783468376
SENTINEL-5P             
1 42969U 17064A   26179.83206371  .00000031  00000+0  35915-4 0  9993
2 42969  98.7926 121.8806 0001030  90.7344 269.3950 14.19520828451217
SKYSAT-C11              
1 42987U 17068A   26179.93800066  .00026347  00000+0  34611-3 0  9998
2 42987  97.4357 329.2853 0000459 138.8930 221.2361 15.58496008485076
SKYSAT-C10              
1 42988U 17068B   26179.89800299  .00008389  00000+0  25080-3 0  9998
2 42988  97.4514 316.8608 0001211 107.5234 252.6141 15.34829526484150
SKYSAT-C9               
1 42989U 17068C   26179.92202452  .00012739  00000+0  30189-3 0  9990
2 42989  97.4437 317.9324 0009487  96.2624 263.9703 15.41845493484565
SKYSAT-C8               
1 42990U 17068D   26179.91655018  .00009941  00000+0  27513-3 0  9999
2 42990  97.4533 316.7242 0001327  94.8960 265.2436 15.37199088484118
SKYSAT-C7               
1 42991U 17068E   26179.91053481  .00009595  00000+0  26587-3 0  9991
2 42991  97.4543 317.7083 0006933  72.1944 288.0056 15.37151824484176
SKYSAT-C6               
1 42992U 17068F   26179.95230963  .00008592  00000+0  26219-3 0  9996
2 42992  97.4580 317.6745 0005206 118.8840 241.2926 15.34160511484129
CARTOSAT-2F             
1 43111U 18004A   26179.99805663  .00003082  00000+0  14930-3 0  9996
2 43111  97.4789 239.5172 0001879 161.1110 199.0195 15.19301534469129
GAOFEN-1 02             
1 43259U 18031A   26179.95521008  .00000774  00000+0  11875-3 0  9993
2 43259  98.0529 242.4489 0002741   1.1199 359.0016 14.76424677444437
GAOFEN-1 04             
1 43262U 18031D   26179.97678856  .00000271  00000+0  46360-4 0  9993
2 43262  98.0530 242.5199 0001960  63.6494 296.4917 14.76448723444426
SENTINEL-3B             
1 43437U 18039A   26179.83127209  .00000104  00000+0  61079-4 0  9990
2 43437  98.6245 247.1963 0000787 110.7212 249.4053 14.26737846425786
GAOFEN-5 01             
1 43461U 18043A   26179.91308569  .00000322  00000+0  76392-4 0  9997
2 43461  98.4576 151.7458 0002839  62.7156 297.4333 14.60613322433402
GAOFEN-6                
1 43484U 18048A   26179.99839601  .00000470  00000+0  75131-4 0  9995
2 43484  98.0896 242.6612 0011742 127.5614 232.6664 14.76375030435130
